[{"OBJECT_NAME":"STARLINK-3276","OBJECT_ID":"2021-125AK","EPOCH":"2026-03-09T21:40:15.474432","MEAN_MOTION":15.12414704,"ECCENTRICITY":0.0004579,"INCLINATION":53.2144,"RA_OF_ASC_NODE":247.2888,"ARG_OF_PERICENTER":141.1703,"MEAN_ANOMALY":218.962,"EPHEMERIS_TYPE":0,"CLASSIFICATION_TYPE":"U","NORAD_CAT_ID":50189,"ELEMENT_SET_NO":999,"REV_AT_EPOCH":23668,"BSTAR":0.0016873617,"MEAN_MOTION_DOT":0.00029472,"MEAN_MOTION_DDOT":0},{"OBJECT_NAME":"LEGION 2","OBJECT_ID":"2024-081B","EPOCH":"2026-03-09T21:44:46.632192","MEAN_MOTION":15.16566591,"ECCENTRICITY":0.00102207,"INCLINATION":97.5068,"RA_OF_ASC_NODE":147.8786,"ARG_OF_PERICENTER":344.1701,"MEAN_ANOMALY":15.9211,"EPHEMERIS_TYPE":0,"CLASSIFICATION_TYPE":"U","NORAD_CAT_ID":59626,"ELEMENT_SET_NO":999,"REV_AT_EPOCH":10249,"BSTAR":0.00029733867,"MEAN_MOTION_DOT":5.743e-5,"MEAN_MOTION_DDOT":0}]
